CCSDS_OMM_VERS = 2.0
CREATION_DATE  = 
ORIGINATOR     = 

OBJECT_NAME    = STARLINK-36799
OBJECT_ID      = 2026-037AC
CENTER_NAME    = EARTH
REF_FRAME      = TEME
TIME_SYSTEM    = UTC
MEAN_ELEMENT_THEORY = SGP/SGP4

EPOCH          = 2026-03-10T22:00:03.000096
MEAN_MOTION    = 15.82010784
ECCENTRICITY   = .00017598
INCLINATION    = 42.9986
RA_OF_ASC_NODE = 190.7781
ARG_OF_PERICENTER = 271.3564
MEAN_ANOMALY   = 268.0207

EPHEMERIS_TYPE = 0
CLASSIFICATION_TYPE = U
NORAD_CAT_ID   = 67958
ELEMENT_SET_NO = 999
REV_AT_EPOCH   = 339
BSTAR          = .54874036E-4
MEAN_MOTION_DOT = .11033E-3
MEAN_MOTION_DDOT = 0

CCSDS_OMM_VERS = 2.0
CREATION_DATE  = 
ORIGINATOR     = 

OBJECT_NAME    = STARLINK-36834
OBJECT_ID      = 2026-037AD
CENTER_NAME    = EARTH
REF_FRAME      = TEME
TIME_SYSTEM    = UTC
MEAN_ELEMENT_THEORY = SGP/SGP4

EPOCH          = 2026-03-10T22:00:03.000096
MEAN_MOTION    = 15.81967557
ECCENTRICITY   = .00016952
INCLINATION    = 42.9989
RA_OF_ASC_NODE = 190.7561
ARG_OF_PERICENTER = 272.6254
MEAN_ANOMALY   = 275.3225

EPHEMERIS_TYPE = 0
CLASSIFICATION_TYPE = U
NORAD_CAT_ID   = 67959
ELEMENT_SET_NO = 999
REV_AT_EPOCH   = 339
BSTAR          = .29673832E-3
MEAN_MOTION_DOT = .62258E-3
MEAN_MOTION_DDOT = 0

CCSDS_OMM_VERS = 2.0
CREATION_DATE  = 
ORIGINATOR     = 

OBJECT_NAME    = STARLINK-36841
OBJECT_ID      = 2026-037AE
CENTER_NAME    = EARTH
REF_FRAME      = TEME
TIME_SYSTEM    = UTC
MEAN_ELEMENT_THEORY = SGP/SGP4

EPOCH          = 2026-03-10T22:00:03.000096
MEAN_MOTION    = 15.81946853
ECCENTRICITY   = .0001768
INCLINATION    = 42.9987
RA_OF_ASC_NODE = 190.7670
ARG_OF_PERICENTER = 285.5007
MEAN_ANOMALY   = 258.1773

EPHEMERIS_TYPE = 0
CLASSIFICATION_TYPE = U
NORAD_CAT_ID   = 67960
ELEMENT_SET_NO = 999
REV_AT_EPOCH   = 339
BSTAR          = .5233412E-3
MEAN_MOTION_DOT = .110724E-2
MEAN_MOTION_DDOT = 0

CCSDS_OMM_VERS = 2.0
CREATION_DATE  = 
ORIGINATOR     = 

OBJECT_NAME    = STARLINK-36912
OBJECT_ID      = 2026-038A
CENTER_NAME    = EARTH
REF_FRAME      = TEME
TIME_SYSTEM    = UTC
MEAN_ELEMENT_THEORY = SGP/SGP4

EPOCH          = 2026-03-10T22:00:03.000096
MEAN_MOTION    = 15.83310711
ECCENTRICITY   = .00014924
INCLINATION    = 97.2756
RA_OF_ASC_NODE = 80.2675
ARG_OF_PERICENTER = 80.0272
MEAN_ANOMALY   = 111.4354

EPHEMERIS_TYPE = 0
CLASSIFICATION_TYPE = U
NORAD_CAT_ID   = 67961
ELEMENT_SET_NO = 999
REV_AT_EPOCH   = 339
BSTAR          = -.81402751E-2
MEAN_MOTION_DOT = -.1541996E-1
MEAN_MOTION_DDOT = 0

CCSDS_OMM_VERS = 2.0
CREATION_DATE  = 
ORIGINATOR     = 

OBJECT_NAME    = STARLINK-36881
OBJECT_ID      = 2026-038B
CENTER_NAME    = EARTH
REF_FRAME      = TEME
TIME_SYSTEM    = UTC
MEAN_ELEMENT_THEORY = SGP/SGP4

EPOCH          = 2026-03-10T22:00:03.000096
MEAN_MOTION    = 15.83408917
ECCENTRICITY   = .00015632
INCLINATION    = 97.2753
RA_OF_ASC_NODE = 80.2688
ARG_OF_PERICENTER = 79.7526
MEAN_ANOMALY   = 115.2232

EPHEMERIS_TYPE = 0
CLASSIFICATION_TYPE = U
NORAD_CAT_ID   = 67962
ELEMENT_SET_NO = 999
REV_AT_EPOCH   = 339
BSTAR          = -.81101949E-2
MEAN_MOTION_DOT = -.1543352E-1
MEAN_MOTION_DDOT = 0

CCSDS_OMM_VERS = 2.0
CREATION_DATE  = 
ORIGINATOR     = 

OBJECT_NAME    = STARLINK-36357
OBJECT_ID      = 2026-038C
CENTER_NAME    = EARTH
REF_FRAME      = TEME
TIME_SYSTEM    = UTC
MEAN_ELEMENT_THEORY = SGP/SGP4

EPOCH          = 2026-03-10T22:00:03.000096
MEAN_MOTION    = 15.83695730
ECCENTRICITY   = .00015341
INCLINATION    = 97.2745
RA_OF_ASC_NODE = 80.2729
ARG_OF_PERICENTER = 82.7855
MEAN_ANOMALY   = 121.9693

EPHEMERIS_TYPE = 0
CLASSIFICATION_TYPE = U
NORAD_CAT_ID   = 67963
ELEMENT_SET_NO = 999
REV_AT_EPOCH   = 339
BSTAR          = -.7995108E-2
MEAN_MOTION_DOT = -.1542439E-1
MEAN_MOTION_DDOT = 0

CCSDS_OMM_VERS = 2.0
CREATION_DATE  = 
ORIGINATOR     = 

OBJECT_NAME    = STARLINK-36349
OBJECT_ID      = 2026-038D
CENTER_NAME    = EARTH
REF_FRAME      = TEME
TIME_SYSTEM    = UTC
MEAN_ELEMENT_THEORY = SGP/SGP4

EPOCH          = 2026-03-10T22:00:03.000096
MEAN_MOTION    = 15.83555092
ECCENTRICITY   = .00016011
INCLINATION    = 97.2744
RA_OF_ASC_NODE = 80.2702
ARG_OF_PERICENTER = 80.0926
MEAN_ANOMALY   = 119.7682

EPHEMERIS_TYPE = 0
CLASSIFICATION_TYPE = U
NORAD_CAT_ID   = 67964
ELEMENT_SET_NO = 999
REV_AT_EPOCH   = 339
BSTAR          = -.80725583E-2
MEAN_MOTION_DOT = -.15465E-1
MEAN_MOTION_DDOT = 0

CCSDS_OMM_VERS = 2.0
CREATION_DATE  = 
ORIGINATOR     = 

OBJECT_NAME    = STARLINK-36806
OBJECT_ID      = 2026-038E
CENTER_NAME    = EARTH
REF_FRAME      = TEME
TIME_SYSTEM    = UTC
MEAN_ELEMENT_THEORY = SGP/SGP4

EPOCH          = 2026-03-10T22:00:03.000096
MEAN_MOTION    = 15.83856344
ECCENTRICITY   = .00014477
INCLINATION    = 97.2736
RA_OF_ASC_NODE = 80.2746
ARG_OF_PERICENTER = 82.9500
MEAN_ANOMALY   = 127.5083

EPHEMERIS_TYPE = 0
CLASSIFICATION_TYPE = U
NORAD_CAT_ID   = 67965
ELEMENT_SET_NO = 999
REV_AT_EPOCH   = 339
BSTAR          = -.78899022E-2
MEAN_MOTION_DOT = -.1534792E-1
MEAN_MOTION_DDOT = 0

CCSDS_OMM_VERS = 2.0
CREATION_DATE  = 
ORIGINATOR     = 

OBJECT_NAME    = STARLINK-36820
OBJECT_ID      = 2026-038F
CENTER_NAME    = EARTH
REF_FRAME      = TEME
TIME_SYSTEM    = UTC
MEAN_ELEMENT_THEORY = SGP/SGP4

EPOCH          = 2026-03-10T22:00:03.000096
MEAN_MOTION    = 15.83994552
ECCENTRICITY   = .00014747
INCLINATION    = 97.2735
RA_OF_ASC_NODE = 80.2767
ARG_OF_PERICENTER = 81.5199
MEAN_ANOMALY   = 133.6938

EPHEMERIS_TYPE = 0
CLASSIFICATION_TYPE = U
NORAD_CAT_ID   = 67966
ELEMENT_SET_NO = 999
REV_AT_EPOCH   = 339
BSTAR          = -.7832715E-2
MEAN_MOTION_DOT = -.1533896E-1
MEAN_MOTION_DDOT = 0

CCSDS_OMM_VERS = 2.0
CREATION_DATE  = 
ORIGINATOR     = 

OBJECT_NAME    = STARLINK-36819
OBJECT_ID      = 2026-038G
CENTER_NAME    = EARTH
REF_FRAME      = TEME
TIME_SYSTEM    = UTC
MEAN_ELEMENT_THEORY = SGP/SGP4

EPOCH          = 2026-03-10T22:00:03.000096
MEAN_MOTION    = 15.84142313
ECCENTRICITY   = .00014478
INCLINATION    = 97.2732
RA_OF_ASC_NODE = 80.2789
ARG_OF_PERICENTER = 88.6882
MEAN_ANOMALY   = 131.6598

EPHEMERIS_TYPE = 0
CLASSIFICATION_TYPE = U
NORAD_CAT_ID   = 67967
ELEMENT_SET_NO = 999
REV_AT_EPOCH   = 339
BSTAR          = -.77704307E-2
MEAN_MOTION_DOT = -.1532629E-1
MEAN_MOTION_DDOT = 0

CCSDS_OMM_VERS = 2.0
CREATION_DATE  = 
ORIGINATOR     = 

OBJECT_NAME    = STARLINK-36812
OBJECT_ID      = 2026-038H
CENTER_NAME    = EARTH
REF_FRAME      = TEME
TIME_SYSTEM    = UTC
MEAN_ELEMENT_THEORY = SGP/SGP4

EPOCH          = 2026-03-10T22:00:03.000096
MEAN_MOTION    = 15.84264308
ECCENTRICITY   = .00014231
INCLINATION    = 97.2724
RA_OF_ASC_NODE = 80.2800
ARG_OF_PERICENTER = 82.9469
MEAN_ANOMALY   = 141.7575

EPHEMERIS_TYPE = 0
CLASSIFICATION_TYPE = U
NORAD_CAT_ID   = 67968
ELEMENT_SET_NO = 999
REV_AT_EPOCH   = 339
BSTAR          = -.77135422E-2
MEAN_MOTION_DOT = -.1530572E-1
MEAN_MOTION_DDOT = 0

CCSDS_OMM_VERS = 2.0
CREATION_DATE  = 
ORIGINATOR     = 

OBJECT_NAME    = STARLINK-36709
OBJECT_ID      = 2026-038J
CENTER_NAME    = EARTH
REF_FRAME      = TEME
TIME_SYSTEM    = UTC
MEAN_ELEMENT_THEORY = SGP/SGP4

EPOCH          = 2026-03-10T22:00:03.000096
MEAN_MOTION    = 15.84575337
ECCENTRICITY   = .00014105
INCLINATION    = 97.2722
RA_OF_ASC_NODE = 80.2848
ARG_OF_PERICENTER = 82.4518
MEAN_ANOMALY   = 152.7692

EPHEMERIS_TYPE = 0
CLASSIFICATION_TYPE = U
NORAD_CAT_ID   = 67969
ELEMENT_SET_NO = 999
REV_AT_EPOCH   = 339
BSTAR          = -.76084194E-2
MEAN_MOTION_DOT = -.1532178E-1
MEAN_MOTION_DDOT = 0

