STARLINK-36799          
1 67958U 26037AC  26069.91670139  .00011033  00000+0  54874-4 0  9991
2 67958  42.9986 190.7781 0001759 271.3564 268.0207 15.82010784  3394
STARLINK-36834          
1 67959U 26037AD  26069.91670139  .00062258  00000+0  29674-3 0  9996
2 67959  42.9989 190.7561 0001695 272.6254 275.3225 15.81967557  3392
STARLINK-36841          
1 67960U 26037AE  26069.91670139  .00110724  00000+0  52334-3 0  9999
2 67960  42.9987 190.7670 0001768 285.5007 258.1773 15.81946853  3396
STARLINK-36912          
1 67961U 26038A   26069.91670139 -.01541996  00000+0 -81403-2 0  9991
2 67961  97.2756  80.2675 0001492  80.0272 111.4354 15.83310711  3394
STARLINK-36881          
1 67962U 26038B   26069.91670139 -.01543352  00000+0 -81102-2 0  9996
2 67962  97.2753  80.2688 0001563  79.7526 115.2232 15.83408917  3395
STARLINK-36357          
1 67963U 26038C   26069.91670139 -.01542439  00000+0 -79951-2 0  9991
2 67963  97.2745  80.2729 0001534  82.7855 121.9693 15.83695730  3396
STARLINK-36349          
1 67964U 26038D   26069.91670139 -.01546500  00000+0 -80726-2 0  9997
2 67964  97.2744  80.2702 0001601  80.0926 119.7682 15.83555092  3391
STARLINK-36806          
1 67965U 26038E   26069.91670139 -.01534792  00000+0 -78899-2 0  9996
2 67965  97.2736  80.2746 0001447  82.9500 127.5083 15.83856344  3394
STARLINK-36820          
1 67966U 26038F   26069.91670139 -.01533896  00000+0 -78327-2 0  9997
2 67966  97.2735  80.2767 0001474  81.5199 133.6938 15.83994552  3397
STARLINK-36819          
1 67967U 26038G   26069.91670139 -.01532629  00000+0 -77704-2 0  9999
2 67967  97.2732  80.2789 0001447  88.6882 131.6598 15.84142313  3397
STARLINK-36812          
1 67968U 26038H   26069.91670139 -.01530572  00000+0 -77135-2 0  9993
2 67968  97.2724  80.2800 0001423  82.9469 141.7575 15.84264308  3391
STARLINK-36709          
1 67969U 26038J   26069.91670139 -.01532178  00000+0 -76084-2 0  9990
2 67969  97.2722  80.2848 0001410  82.4518 152.7692 15.84575337  3397
